      2.10          N: GNSS NAV DATA                        RINEX VERSION / TYPE
fic2rin                                 07/28/2021 00:17:01 PGM / RUN BY / DATE
                                                            END OF HEADER
23 21  7 27 20  0  0.0 7.878523319960e-05-5.115907697473e-12 0.000000000000e+00
    2.100000000000e+01-7.571875000000e+01 4.723768192477e-09-2.432287882965e+00
   -3.833323717117e-06 1.462092041038e-03 4.598870873451e-06 5.153661014557e+03
    2.448000000000e+05-5.401670932770e-08 2.730095860159e+00-1.676380634308e-08
    9.652130931367e-01 2.939687500000e+02 2.635036989673e+00-8.261772707424e-09
   -2.046513816944e-10 1.000000000000e+00 2.168000000000e+03 0.000000000000e+00
    2.400000000000e+00 0.000000000000e+00-8.381903171539e-09 2.100000000000e+01
    2.376000000000e+05 4.000000000000e+00
25 21  7 27 20  0  0.0 1.809624955058e-04 6.593836587854e-12 0.000000000000e+00
    1.800000000000e+01-2.450000000000e+01 4.534831751088e-09 2.689106032266e+00
   -1.331791281700e-06 9.831852628849e-03 6.139278411865e-06 5.153592123032e+03
    2.448000000000e+05 4.097819328308e-08-3.878858237444e-01-1.061707735062e-07
    9.603059714326e-01 2.585000000000e+02 9.707028468356e-01-7.996404510916e-09
   -3.407284784231e-10 1.000000000000e+00 2.168000000000e+03 0.000000000000e+00
    2.400000000000e+00 0.000000000000e+00 5.587935447693e-09 1.800000000000e+01
    2.376000000000e+05 4.000000000000e+00
20 21  7 27 20  0  0.0 5.199643783271e-04-2.273736754432e-13 0.000000000000e+00
    1.100000000000e+01-5.934375000000e+01 5.442369553680e-09-8.745258270995e-01
   -2.976506948471e-06 5.514694028534e-03 3.287568688393e-06 5.153625120163e+03
    2.448000000000e+05 6.705522537231e-08 2.608864467985e+00-2.235174179077e-08
    9.392436478851e-01 3.042187500000e+02 2.968723116148e+00-8.740364071247e-09
   -3.821587755898e-11 1.000000000000e+00 2.168000000000e+03 0.000000000000e+00
    2.400000000000e+00 0.000000000000e+00-8.381903171539e-09 1.100000000000e+01
    2.376000000000e+05 4.000000000000e+00
16 21  7 27 20  0  0.0-3.640414215624e-04-6.139089236967e-12 0.000000000000e+00
    6.000000000000e+01-2.318750000000e+01 4.360895934534e-09 1.086177783642e+00
   -1.067295670509e-06 1.217718690168e-02 7.230788469315e-06 5.153727340698e+03
    2.448000000000e+05-1.564621925354e-07-2.949586092272e-01 8.009374141693e-08
    9.730493045293e-01 2.494687500000e+02 6.794600290489e-01-8.100694569301e-09
   -5.543088034723e-10 1.000000000000e+00 2.168000000000e+03 0.000000000000e+00
    2.400000000000e+00 0.000000000000e+00-1.024454832077e-08 6.000000000000e+01
    2.376000000000e+05 4.000000000000e+00
12 21  7 27 20  0  0.0-7.458589971066e-05-5.343281372916e-12 0.000000000000e+00
    7.100000000000e+01-2.303125000000e+01 4.232319150224e-09 2.894319310371e+00
   -1.139938831329e-06 8.275997010060e-03 6.660819053650e-06 5.153701690674e+03
    2.448000000000e+05 4.656612873077e-08-3.136695523616e-01-5.587935447693e-08
    9.729922273175e-01 2.548437500000e+02 1.228683389881e+00-7.826754587173e-09
   -3.696582548929e-10 1.000000000000e+00 2.168000000000e+03 0.000000000000e+00
    2.400000000000e+00 0.000000000000e+00-1.257285475731e-08 7.100000000000e+01
    2.376000000000e+05 4.000000000000e+00
 8 21  7 27 20  0  0.0-3.037508577108e-05-1.364242052659e-12 0.000000000000e+00
    8.000000000000e+01 3.140625000000e+01 4.111599836065e-09 2.565768512043e-01
    1.724809408188e-06 6.378499092534e-03 1.135282218456e-05 5.153635305405e+03
    2.448000000000e+05 1.322478055954e-07 6.433961418376e-01-3.539025783539e-08
    9.670014475832e-01 1.630937500000e+02 5.939075820633e-02-7.923187175406e-09
   -9.607543049875e-11 1.000000000000e+00 2.168000000000e+03 0.000000000000e+00
    2.400000000000e+00 0.000000000000e+00 5.122274160385e-09 8.000000000000e+01
    2.376000000000e+05 4.000000000000e+00
27 21  7 27 20  0  0.0-1.694285310805e-04-5.798028723802e-12 0.000000000000e+00
    3.800000000000e+01 4.075000000000e+01 3.927663602954e-09 1.436695492134e-01
    2.162531018257e-06 9.435764513910e-03 1.140125095844e-05 5.153693891525e+03
    2.448000000000e+05 7.636845111847e-08 6.611455528061e-01 1.396983861923e-07
    9.756034965902e-01 1.705625000000e+02 6.360559108760e-01-7.859613098719e-09
   -9.428964182777e-11 1.000000000000e+00 2.168000000000e+03 0.000000000000e+00
    2.400000000000e+00 0.000000000000e+00 1.862645149231e-09 3.800000000000e+01
    2.376000000000e+05 4.000000000000e+00
15 21  7 27 20  0  0.0-1.325430348516e-04 2.614797267597e-12 0.000000000000e+00
    4.600000000000e+01-4.915625000000e+01 5.192359139743e-09-7.023525318707e-01
   -2.533197402954e-06 1.338940311689e-02 1.006200909615e-05 5.153657495499e+03
    2.448000000000e+05-7.078051567078e-08-2.598071371461e+00 2.644956111908e-07
    9.294686852901e-01 1.685625000000e+02 1.004103861802e+00-8.502139862538e-09
   -1.296482575132e-10 1.000000000000e+00 2.168000000000e+03 0.000000000000e+00
    2.400000000000e+00 0.000000000000e+00-1.071020960808e-08 4.600000000000e+01
    2.376000000000e+05 4.000000000000e+00
22 21  7 27 20  0  0.0-5.529364570975e-04 9.436007530894e-12 0.000000000000e+00
    4.600000000000e+01-7.034375000000e+01 5.550231189407e-09-8.738396790216e-01
   -3.635883331299e-06 6.870392942801e-03 3.565102815628e-06 5.153775934219e+03
    2.448000000000e+05-5.401670932770e-08 2.655140673244e+00-7.636845111847e-08
    9.359568162097e-01 2.976875000000e+02-9.173119633253e-01-8.898942105230e-09
   -9.214669542259e-11 1.000000000000e+00 2.168000000000e+03 0.000000000000e+00
    2.400000000000e+00 0.000000000000e+00-1.769512891769e-08 4.600000000000e+01
    2.376000000000e+05 4.000000000000e+00
19 21  7 27 20  0  0.0 3.189919516444e-05 5.002220859751e-12 0.000000000000e+00
    8.100000000000e+01 4.475000000000e+01 3.790872190757e-09 2.626225458112e+00
    2.196058630943e-06 9.272396797314e-03 1.071579754353e-05 5.153648426056e+03
    2.448000000000e+05 8.009374141693e-08 7.673255718815e-01 2.048909664154e-08
    9.803858767327e-01 1.810312500000e+02 1.901694179687e+00-7.527813563651e-09
   -2.750114553310e-11 1.000000000000e+00 2.168000000000e+03 0.000000000000e+00
    2.400000000000e+00 0.000000000000e+00-1.536682248116e-08 8.100000000000e+01
    2.376000000000e+05 4.000000000000e+00
13 21  7 27 20  0  0.0 1.633544452488e-04 5.115907697473e-12 0.000000000000e+00
    8.500000000000e+01-2.818750000000e+01 4.274820920593e-09-3.554487372038e-01
   -1.491978764534e-06 5.169735872187e-03 1.078844070435e-05 5.153687965393e+03
    2.448000000000e+05-4.097819328308e-08-2.347814997839e+00 5.029141902924e-08
    9.682983288492e-01 1.724375000000e+02 9.564509950402e-01-7.928901699153e-09
    1.250052069686e-11 1.000000000000e+00 2.168000000000e+03 0.000000000000e+00
    2.400000000000e+00 0.000000000000e+00-1.117587089539e-08 8.500000000000e+01
    2.376000000000e+05 4.000000000000e+00
24 21  7 27 20  0  0.0 1.894449815154e-04 1.296029950026e-11 0.000000000000e+00
    4.500000000000e+01 4.450000000000e+01 5.165572309678e-09-1.668155605240e+00
    2.322718501091e-06 1.127004681621e-02 7.158145308495e-06 5.153717243195e+03
    2.448000000000e+05 1.620501279831e-07-1.504224264658e+00-1.676380634308e-07
    9.344729974198e-01 2.283437500000e+02 7.459185497245e-01-8.249986502195e-09
    2.978695503195e-10 1.000000000000e+00 2.168000000000e+03 0.000000000000e+00
    2.400000000000e+00 0.000000000000e+00 2.793967723846e-09 4.500000000000e+01
    2.376000000000e+05 4.000000000000e+00
31 21  7 27 20  0  0.0-1.310133375227e-04-2.160049916711e-12 0.000000000000e+00
    9.300000000000e+01 4.631250000000e+01 4.824486673521e-09-3.141475930282e+00
    2.242624759674e-06 1.005005987827e-02 6.968155503273e-06 5.153573560715e+03
    2.448000000000e+05-6.146728992462e-08-1.407566173090e+00-3.352761268616e-08
    9.553393338322e-01 2.437500000000e+02 2.732831840273e-01-8.116052351872e-09
    3.000124967247e-10 1.000000000000e+00 2.168000000000e+03 0.000000000000e+00
    3.400000000000e+00 0.000000000000e+00-1.303851604462e-08 9.300000000000e+01
    2.376000000000e+05 4.000000000000e+00
29 21  7 27 20  0  0.0-3.869817592204e-04-6.025402399246e-12 0.000000000000e+00
    9.400000000000e+01 4.671875000000e+01 3.719440643918e-09 2.548327866027e-01
    2.359971404076e-06 1.977260108106e-03 1.059658825397e-05 5.153605283737e+03
    2.448000000000e+05 2.793967723846e-08 7.348316407331e-01-1.303851604462e-08
    9.837173669083e-01 1.846875000000e+02 2.256958344906e+00-7.670319499595e-09
    1.821504444400e-11 1.000000000000e+00 2.168000000000e+03 0.000000000000e+00
    2.400000000000e+00 0.000000000000e+00-1.024454832077e-08 9.400000000000e+01
    2.376000000000e+05 4.000000000000e+00
30 21  7 27 20  0  0.0-4.556514322758e-04-4.320099833421e-12 0.000000000000e+00
    5.600000000000e+01 3.875000000000e+01 5.250218692682e-09-2.785426549636e+00
    1.933425664902e-06 5.366826546378e-03 6.994232535362e-06 5.153667617798e+03
    2.448000000000e+05-4.842877388000e-08-1.408634252505e+00-9.872019290924e-08
    9.362466188183e-01 2.305312500000e+02-2.739276627855e+00-8.354990876049e-09
    2.750114553310e-10 1.000000000000e+00 2.168000000000e+03 0.000000000000e+00
    2.400000000000e+00 0.000000000000e+00 3.725290298462e-09 5.600000000000e+01
    2.376000000000e+05 4.000000000000e+00
32 21  7 27 20  0  0.0 1.161685213447e-05-2.273736754432e-12 0.000000000000e+00
    5.200000000000e+01-4.593750000000e+01 4.477329355882e-09 9.038006816233e-01
   -2.318993210793e-06 5.059864721261e-03 1.158565282822e-05 5.153705448151e+03
    2.448000000000e+05-5.587935447693e-09-2.487104761965e+00 6.891787052155e-08
    9.576339296170e-01 1.558437500000e+02-2.362431177678e+00-8.024262814183e-09
   -8.250343659930e-11 1.000000000000e+00 2.168000000000e+03 0.000000000000e+00
    2.400000000000e+00 0.000000000000e+00 4.656612873077e-10 5.200000000000e+01
    2.376000000000e+05 4.000000000000e+00
